ORBCOMM FM24            
1 25478U 98053D   24235.42830607  .00003531  00000+0  12473-2 0  9997
2 25478  45.0063 243.8450 0002013 257.2705 102.7917 14.36186863354461
ORBCOMM FM25            
1 25479U 98053E   24235.53500344  .00003287  00000+0  11648-2 0  9993
2 25479  45.0056 241.5911 0003878 225.3927 134.6604 14.36177338354771
ORBCOMM FM26            
1 25480U 98053F   24235.44518652  .00002465  00000+0  89698-3 0  9994
2 25480  45.0052 236.6010 0006419 230.9864 129.0412 14.35532719354693
ORBCOMM FM27            
1 25481U 98053G   24235.52403167  .00003258  00000+0  11552-2 0  9992
2 25481  45.0040 241.9031 0002572 297.0016  63.0568 14.36160839354704
ORBCOMM FM28            
1 25482U 98053H   24235.54979809  .00003472  00000+0  12180-2 0  9992
2 25482  45.0046 179.9135 0004352 265.2205  94.8146 14.36557956355380
ORBCOMM FM30            
1 25980U 99065A   24235.46699328  .00002766  00000+0  99782-3 0  9994
2 25980  45.0318  62.1287 0005473 307.1867  52.8481 14.35675248291492
ORBCOMM FM31            
1 25981U 99065B   24235.50259656  .00002804  00000+0  10112-2 0  9998
2 25981  45.0229  55.5823 0002551 332.1188  27.9523 14.35661359291054
ORBCOMM FM32            
1 25982U 99065C   24235.48672148  .00002630  00000+0  97022-3 0  9994
2 25982  45.0155  70.1971 0004868 338.5808  21.4835 14.34671219291670
